[{"OBJECT_NAME":"STARLINK-3894","OBJECT_ID":"2022-049BA","EPOCH":"2026-03-09T05:12:25.833888","MEAN_MOTION":15.08841986,"ECCENTRICITY":0.00014673,"INCLINATION":53.2174,"RA_OF_ASC_NODE":51.2384,"ARG_OF_PERICENTER":99.3621,"MEAN_ANOMALY":260.7537,"EPHEMERIS_TYPE":0,"CLASSIFICATION_TYPE":"U","NORAD_CAT_ID":52499,"ELEMENT_SET_NO":999,"REV_AT_EPOCH":21232,"BSTAR":2.6451027e-5,"MEAN_MOTION_DOT":1.33e-6,"MEAN_MOTION_DDOT":0},{"OBJECT_NAME":"FENGYUN 1C DEB","OBJECT_ID":"1999-025DVA","EPOCH":"2026-03-08T04:27:49.439232","MEAN_MOTION":15.15496966,"ECCENTRICITY":0.00338373,"INCLINATION":98.8203,"RA_OF_ASC_NODE":206.4896,"ARG_OF_PERICENTER":4.2711,"MEAN_ANOMALY":355.88,"EPHEMERIS_TYPE":0,"CLASSIFICATION_TYPE":"U","NORAD_CAT_ID":36225,"ELEMENT_SET_NO":999,"REV_AT_EPOCH":68062,"BSTAR":0.0036229129,"MEAN_MOTION_DOT":0.00070122,"MEAN_MOTION_DDOT":0}]
